{
  "type": "FeatureCollection",
  "features": [
    {
      "type": "Feature",
      "properties": {
        "norad_id": 41019,
        "name": "GPS BIIF-11 (PRN 10)",
        "group": "gnss",
        "lat": 55.0246974790241,
        "lon": 149.32494601499965,
        "alt_km": 20353.738077391437,
        "timestamp": "2025-12-02T23:34:15.758528+00:00",
        "meta_object_name": "GPS BIIF-11 (PRN 10)",
        "meta_object_id": "2015-062A",
        "meta_epoch": "2025-12-01T08:13:28.844544",
        "meta_mean_motion": 2.00567003,
        "meta_eccentricity": 0.01104814,
        "meta_inclination": 56.824,
        "meta_ra_of_asc_node": 38.4433,
        "meta_arg_of_pericenter": 229.6355,
        "meta_mean_anomaly": 129.443,
        "meta_ephemeris_type": 0,
        "meta_classification_type": "U",
        "meta_norad_cat_id": 41019,
        "meta_element_set_no": 999,
        "meta_rev_at_epoch": 7386,
        "meta_bstar": 0,
        "meta_mean_motion_dot": -6.4e-07,
        "meta_mean_motion_ddot": 0,
        "tle_line1": "1 41019U 15062A   25335.34269496 -.00000064  00000+0  00000+0 0  9999",
        "tle_line2": "2 41019  56.8240  38.4433 0110481 229.6355 129.4430  2.00567003 73864"
      },
      "geometry": {
        "type": "Point",
        "coordinates": [
          149.32494601499965,
          55.0246974790241
        ]
      }
    },
    {
      "type": "Feature",
      "properties": {
        "norad_id": 41028,
        "name": "GSAT-15 (GAGAN/PRN 139)",
        "group": "gnss",
        "lat": 0.002732479495652894,
        "lon": 159.08642791296154,
        "alt_km": 35781.538564161376,
        "timestamp": "2025-12-02T23:34:15.758541+00:00",
        "meta_object_name": "GSAT-15 (GAGAN/PRN 139)",
        "meta_object_id": "2015-065A",
        "meta_epoch": "2025-12-02T00:31:54.223968",
        "meta_mean_motion": 1.00274098,
        "meta_eccentricity": 0.0003124,
        "meta_inclination": 0.0127,
        "meta_ra_of_asc_node": 23.8561,
        "meta_arg_of_pericenter": 207.5241,
        "meta_mean_anomaly": 301.2239,
        "meta_ephemeris_type": 0,
        "meta_classification_type": "U",
        "meta_norad_cat_id": 41028,
        "meta_element_set_no": 999,
        "meta_rev_at_epoch": 3682,
        "meta_bstar": 0,
        "meta_mean_motion_dot": -2.37e-06,
        "meta_mean_motion_ddot": 0,
        "tle_line1": "1 41028U 15065A   25336.02215537 -.00000237  00000+0  00000+0 0  9997",
        "tle_line2": "2 41028   0.0127  23.8561 0003124 207.5241 301.2239  1.00274098 36823"
      },
      "geometry": {
        "type": "Point",
        "coordinates": [
          159.08642791296154,
          0.002732479495652894
        ]
      }
    },
    {
      "type": "Feature",
      "properties": {
        "norad_id": 41174,
        "name": "GSAT0209 (GALILEO 12)",
        "group": "gnss",
        "lat": -55.31798957144135,
        "lon": 26.320968765070663,
        "alt_km": 23227.082584668176,
        "timestamp": "2025-12-02T23:34:15.758552+00:00",
        "meta_object_name": "GSAT0209 (GALILEO 12)",
        "meta_object_id": "2015-079A",
        "meta_epoch": "2025-12-01T22:43:10.411392",
        "meta_mean_motion": 1.70474306,
        "meta_eccentricity": 0.0002352,
        "meta_inclination": 55.7062,
        "meta_ra_of_asc_node": 106.6773,
        "meta_arg_of_pericenter": 357.4206,
        "meta_mean_anomaly": 2.5431,
        "meta_ephemeris_type": 0,
        "meta_classification_type": "U",
        "meta_norad_cat_id": 41174,
        "meta_element_set_no": 999,
        "meta_rev_at_epoch": 6141,
        "meta_bstar": 0,
        "meta_mean_motion_dot": 3.5e-07,
        "meta_mean_motion_ddot": 0,
        "tle_line1": "1 41174U 15079A   25335.94664828  .00000035  00000+0  00000+0 0  9990",
        "tle_line2": "2 41174  55.7062 106.6773 0002352 357.4206   2.5431  1.70474306 61412"
      },
      "geometry": {
        "type": "Point",
        "coordinates": [
          26.320968765070663,
          -55.31798957144135
        ]
      }
    },
    {
      "type": "Feature",
      "properties": {
        "norad_id": 41175,
        "name": "GSAT0208 (GALILEO 11)",
        "group": "gnss",
        "lat": 31.735350621147333,
        "lon": -98.327732730462,
        "alt_km": 23221.80069535911,
        "timestamp": "2025-12-02T23:34:15.758566+00:00",
        "meta_object_name": "GSAT0208 (GALILEO 11)",
        "meta_object_id": "2015-079B",
        "meta_epoch": "2025-11-30T09:46:10.644960",
        "meta_mean_motion": 1.70474193,
        "meta_eccentricity": 0.00018872,
        "meta_inclination": 55.7038,
        "meta_ra_of_asc_node": 106.7167,
        "meta_arg_of_pericenter": 11.7228,
        "meta_mean_anomaly": 348.2564,
        "meta_ephemeris_type": 0,
        "meta_classification_type": "U",
        "meta_norad_cat_id": 41175,
        "meta_element_set_no": 999,
        "meta_rev_at_epoch": 6180,
        "meta_bstar": 0,
        "meta_mean_motion_dot": 4.8e-07,
        "meta_mean_motion_ddot": 0,
        "tle_line1": "1 41175U 15079B   25334.40706765  .00000048  00000+0  00000+0 0  9992",
        "tle_line2": "2 41175  55.7038 106.7167 0001887  11.7228 348.2564  1.70474193 61804"
      },
      "geometry": {
        "type": "Point",
        "coordinates": [
          -98.327732730462,
          31.735350621147333
        ]
      }
    },
    {
      "type": "Feature",
      "properties": {
        "norad_id": 41241,
        "name": "IRNSS-1E",
        "group": "gnss",
        "lat": 29.54572245409278,
        "lon": -178.89779607126977,
        "alt_km": 35752.10266853535,
        "timestamp": "2025-12-02T23:34:15.758577+00:00",
        "meta_object_name": "IRNSS-1E",
        "meta_object_id": "2016-003A",
        "meta_epoch": "2025-12-01T16:03:27.224640",
        "meta_mean_motion": 1.00278544,
        "meta_eccentricity": 0.00219184,
        "meta_inclination": 32.8014,
        "meta_ra_of_asc_node": 62.6145,
        "meta_arg_of_pericenter": 186.5756,
        "meta_mean_anomaly": 174.1351,
        "meta_ephemeris_type": 0,
        "meta_classification_type": "U",
        "meta_norad_cat_id": 41241,
        "meta_element_set_no": 999,
        "meta_rev_at_epoch": 3610,
        "meta_bstar": 0,
        "meta_mean_motion_dot": -2.97e-06,
        "meta_mean_motion_ddot": 0,
        "tle_line1": "1 41241U 16003A   25335.66906510 -.00000297  00000+0  00000+0 0  9990",
        "tle_line2": "2 41241  32.8014  62.6145 0021918 186.5756 174.1351  1.00278544 36108"
      },
      "geometry": {
        "type": "Point",
        "coordinates": [
          -178.89779607126977,
          29.54572245409278
        ]
      }
    },
    {
      "type": "Feature",
      "properties": {
        "norad_id": 41328,
        "name": "GPS BIIF-12 (PRN 32)",
        "group": "gnss",
        "lat": 34.710399570189885,
        "lon": 125.76940720382211,
        "alt_km": 20406.961196121658,
        "timestamp": "2025-12-02T23:34:15.758589+00:00",
        "meta_object_name": "GPS BIIF-12 (PRN 32)",
        "meta_object_id": "2016-007A",
        "meta_epoch": "2025-11-30T22:13:59.162880",
        "meta_mean_motion": 2.00561199,
        "meta_eccentricity": 0.00916001,
        "meta_inclination": 55.3993,
        "meta_ra_of_asc_node": 97.326,
        "meta_arg_of_pericenter": 243.286,
        "meta_mean_anomaly": 115.7578,
        "meta_ephemeris_type": 0,
        "meta_classification_type": "U",
        "meta_norad_cat_id": 41328,
        "meta_element_set_no": 999,
        "meta_rev_at_epoch": 7186,
        "meta_bstar": 0,
        "meta_mean_motion_dot": 2.3e-07,
        "meta_mean_motion_ddot": 0,
        "tle_line1": "1 41328U 16007A   25334.92637920  .00000023  00000+0  00000+0 0  9990",
        "tle_line2": "2 41328  55.3993  97.3260 0091600 243.2860 115.7578  2.00561199 71861"
      },
      "geometry": {
        "type": "Point",
        "coordinates": [
          125.76940720382211,
          34.710399570189885
        ]
      }
    },
    {
      "type": "Feature",
      "properties": {
        "norad_id": 41330,
        "name": "COSMOS 2514 (751)",
        "group": "gnss",
        "lat": -54.103660204784546,
        "lon": 179.57446554619588,
        "alt_km": 19106.653035795047,
        "timestamp": "2025-12-02T23:34:15.758600+00:00",
        "meta_object_name": "COSMOS 2514 (751)",
        "meta_object_id": "2016-008A",
        "meta_epoch": "2025-12-02T04:41:58.161120",
        "meta_mean_motion": 2.13102491,
        "meta_eccentricity": 0.0012493,
        "meta_inclination": 65.1398,
        "meta_ra_of_asc_node": 319.7653,
        "meta_arg_of_pericenter": 219.8518,
        "meta_mean_anomaly": 140.0636,
        "meta_ephemeris_type": 0,
        "meta_classification_type": "U",
        "meta_norad_cat_id": 41330,
        "meta_element_set_no": 999,
        "meta_rev_at_epoch": 7642,
        "meta_bstar": 0,
        "meta_mean_motion_dot": -3.3e-07,
        "meta_mean_motion_ddot": 0,
        "tle_line1": "1 41330U 16008A   25336.19581205 -.00000033  00000+0  00000+0 0  9991",
        "tle_line2": "2 41330  65.1398 319.7653 0012493 219.8518 140.0636  2.13102491 76424"
      },
      "geometry": {
        "type": "Point",
        "coordinates": [
          179.57446554619588,
          -54.103660204784546
        ]
      }
    }
  ]
}